NORAD_CAT_ID,OBJECT_NAME,OBJECT_TYPE,EPOCH,MEAN_MOTION,ECCENTRICITY,INCLINATION,RA_OF_ASC_NODE,ARG_OF_PERICENTER,MEAN_ANOMALY,BSTAR,MEAN_MOTION_DOT,MEAN_MOTION_DDOT,TLE_LINE0,TLE_LINE1,TLE_LINE2,SEMIMAJOR_AXIS,PERIOD,APOGEE,PERIGEE,DECAYED
50829.0,STARLINK-3294,PAYLOAD,2022-10-05 05:24:29,15.08841155,0.0001905,53.2188,27.1682,44.2148,315.8996,-2.5008e-05,-6.86e-06,0.0,0 STARLINK-3294,1 50829U 22001AC  22278.22534713 -.00000686  00000-0 -25008-4 0  9998,2 50829  53.2188  27.1682 0001905  44.2148 315.8996 15.08841155 42743,6917.877,95.437,541.06,538.424,0.0
50829.0,STARLINK-3294,PAYLOAD,2022-10-05 13:21:25,15.08836719,0.0001926,53.2187,25.6818,46.0133,314.1018,-0.00013775,-2.48e-05,0.0,0 STARLINK-3294,1 50829U 22001AC  22278.55654972 -.00002480  00000-0 -13775-3 0  9995,2 50829  53.2187  25.6818 0001926  46.0133 314.1018 15.08836719 41525,6917.89,95.438,541.0880000000002,538.423,0.0
50829.0,STARLINK-3294,PAYLOAD,2022-10-05 16:32:12,15.08840876,0.0001923,53.2195,25.0873,45.8896,314.2254,-9.3909e-05,-1.782e-05,0.0,0 STARLINK-3294,1 50829U 22001AC  22278.68903441 -.00001782  00000-0 -93909-4 0  9999,2 50829  53.2195  25.0873 0001923  45.8896 314.2254 15.08840876 42814,6917.878000000002,95.437,541.073,538.4119999999998,0.0
50829.0,STARLINK-3294,PAYLOAD,2022-10-05 19:42:59,15.088377599999998,0.0001928,53.2194,24.4924,46.1472,313.9679,-0.00015764,-2.796e-05,0.0,0 STARLINK-3294,1 50829U 22001AC  22278.82151782 -.00002796  00000-0 -15764-3 0  9996,2 50829  53.2194  24.4924 0001928  46.1472 313.9679 15.08837760 41568,6917.887,95.438,541.086,538.418,0.0
50829.0,STARLINK-3294,PAYLOAD,2022-10-06 13:12:13,15.08837202,0.0001803,53.2193,21.2212,47.32,312.7944,-4.2639e-05,-9.67e-06,0.0,0 STARLINK-3294,1 50829U 22001AC  22279.55015726 -.00000967  00000-0 -42639-4 0  9994,2 50829  53.2193  21.2212 0001803  47.3200 312.7944 15.08837202 41671,6917.889,95.438,541.001,538.507,0.0
50829.0,STARLINK-3294,PAYLOAD,2022-10-07 01:55:17,15.0885123,0.0001928,53.2195,18.8426,43.65600000000001,316.4584,0.00017803,2.547e-05,0.0,0 STARLINK-3294,1 50829U 22001AC  22280.08006277  .00002547  00000-0  17803-3 0  9993,2 50829  53.2195  18.8426 0001928  43.6560 316.4584 15.08851230 43027,6917.846,95.437,541.045,538.377,0.0
50829.0,STARLINK-3294,PAYLOAD,2022-10-07 09:52:14,15.0884348,0.0001863,53.2188,17.3557,44.2078,315.9062,0.00022902,3.359e-05,0.0,0 STARLINK-3294,1 50829U 22001AC  22280.41127372  .00003359  00000-0  22902-3 0  9998,2 50829  53.2188  17.3557 0001863  44.2078 315.9062 15.08843480 43075,6917.87,95.437,541.024,538.446,0.0
50829.0,STARLINK-3294,PAYLOAD,2022-10-07 13:03:00,15.08846615,0.0001868,53.2189,16.761,44.2923,315.8218,0.00027331,4.065e-05,0.0,0 STARLINK-3294,1 50829U 22001AC  22280.54375245  .00004065  00000-0  27331-3 0  9992,2 50829  53.2189  16.7610 0001868  44.2923 315.8218 15.08846615 41829,6917.86,95.437,541.0169999999998,538.433,0.0
50829.0,STARLINK-3294,PAYLOAD,2022-10-08 03:21:28,15.08839013,0.0001838,53.2182,14.085,48.2744,311.8405,0.00018892,2.72e-05,0.0,0 STARLINK-3294,1 50829U 22001AC  22281.13991675  .00002720  00000-0  18892-3 0  9997,2 50829  53.2182  14.0850 0001838  48.2744 311.8405 15.08839013 43180,6917.8830000000025,95.438,541.02,538.477,0.0
50829.0,STARLINK-3294,PAYLOAD,2022-10-08 12:53:47,15.08833812,0.0001893,53.2189,12.3014,37.4849,322.6275,6.4208e-05,7.34e-06,0.0,0 STARLINK-3294,1 50829U 22001AC  22281.53736033  .00000734  00000-0  64208-4 0  9992,2 50829  53.2189  12.3014 0001893  37.4849 322.6275 15.08833812 43240,6917.899,95.438,541.0740000000002,538.455,0.0
50829.0,STARLINK-3294,PAYLOAD,2022-10-09 12:44:35,15.08839558,0.000198,53.2187,7.841,38.3787,321.7345,0.00011371,1.522e-05,0.0,0 STARLINK-3294,1 50829U 22001AC  22282.53096132  .00001522  00000-0  11371-3 0  9990,2 50829  53.2187   7.8410 0001980  38.3787 321.7345 15.08839558 42122,6917.882,95.438,541.116,538.377,0.0
50829.0,STARLINK-3294,PAYLOAD,2022-10-10 06:13:49,15.08860318,0.0001974,53.2187,4.5704,37.1976,322.9152,0.00064665,0.00010024,0.0,0 STARLINK-3294,1 50829U 22001AC  22283.25959555  .00010024  00000-0  64665-3 0  9998,2 50829  53.2187   4.5704 0001974  37.1976 322.9152 15.08860318 43502,6917.818,95.436,541.049,538.318,0.0
50829.0,STARLINK-3294,PAYLOAD,2022-10-10 12:35:21,15.08856844,0.000195,53.2196,3.3809,33.979,326.1327,0.00041087,6.26e-05,0.0,0 STARLINK-3294,1 50829U 22001AC  22283.52455341  .00006260  00000-0  41087-3 0  9992,2 50829  53.2196   3.3809 0001950  33.9790 326.1327 15.08856844 43540,6917.829000000002,95.436,541.043,538.345,0.0
50829.0,STARLINK-3294,PAYLOAD,2022-10-11 04:29:12,15.08845613,0.0002054,53.2184,0.4094,32.632,327.4799,-5.673999999999999e-06,-3.79e-06,0.0,0 STARLINK-3294,1 50829U 22001AC  22284.18695352 -.00000379  00000-0 -56740-5 0  9994,2 50829  53.2184   0.4094 0002054  32.6320 327.4799 15.08845613 43642,6917.863,95.437,541.149,538.307,0.0
50829.0,STARLINK-3294,PAYLOAD,2022-10-11 10:50:46,15.08823401,0.0001981,53.2191,359.2185,36.714,323.3987,-0.00034892,-5.835e-05,0.0,0 STARLINK-3294,1 50829U 22001AC  22284.45192365 -.00005835  00000-0 -34892-3 0  9994,2 50829  53.2191 359.2185 0001981  36.7140 323.3987 15.08823401 43688,6917.931,95.439,541.1669999999998,538.4259999999998,0.0
50829.0,STARLINK-3294,PAYLOAD,2022-10-11 14:01:32,15.08819242,0.0001955999999999,53.2189,358.6238,39.7845,320.3291,-0.00038556,-6.416e-05,0.0,0 STARLINK-3294,1 50829U 22001AC  22284.58440667 -.00006416  00000-0 -38556-3 0  9996,2 50829  53.2189 358.6238 0001956  39.7845 320.3291 15.08819242 42439,6917.944,95.439,541.1619999999998,538.456,0.0
50829.0,STARLINK-3294,PAYLOAD,2022-10-12 12:16:57,15.08825169,0.0001998,53.2189,354.4607,39.432,320.6817,1.4484e-05,-5.8e-07,0.0,0 STARLINK-3294,1 50829U 22001AC  22285.51177644 -.00000058  00000-0  14484-4 0  9992,2 50829  53.2189 354.4607 0001998  39.4320 320.6817 15.08825169 42571,6917.926,95.438,541.173,538.409,0.0
50829.0,STARLINK-3294,PAYLOAD,2022-10-13 10:32:22,15.08836685,0.0002041,53.2177,350.2974,36.8738,323.2394,0.00045289,6.926e-05,0.0,0 STARLINK-3294,1 50829U 22001AC  22286.43914358  .00006926  00000-0  45289-3 0  9990,2 50829  53.2177 350.2974 0002041  36.8738 323.2394 15.08836685 43983,6917.891,95.438,541.1669999999998,538.344,0.0
50829.0,STARLINK-3294,PAYLOAD,2022-10-14 10:23:08,15.08851449,0.0002218999999999,53.2181,345.8374,33.1962,326.9169,0.00038573,5.858e-05,0.0,0 STARLINK-3294,1 50829U 22001AC  22287.43273734  .00005858  00000-0  38573-3 0  9998,2 50829  53.2181 345.8374 0002219  33.1962 326.9169 15.08851449 42869,6917.845,95.437,541.245,538.175,0.0
50829.0,STARLINK-3294,PAYLOAD,2022-10-14 23:06:13,15.08853588,0.0002098,53.2179,343.4587,39.7848,320.3297,0.00036592,5.542e-05,0.0,0 STARLINK-3294,1 50829U 22001AC  22287.96265360  .00005542  00000-0  36592-3 0  9991,2 50829  53.2179 343.4587 0002098  39.7848 320.3297 15.08853588 44213,6917.839,95.437,541.155,538.252,0.0
50829.0,STARLINK-3294,PAYLOAD,2022-10-15 13:24:41,15.08840022,0.0002189,53.2182,340.7827,37.421,322.6934,3.2841e-05,2.34e-06,0.0,0 STARLINK-3294,1 50829U 22001AC  22288.55881769  .00000234  00000-0  32841-4 0  9991,2 50829  53.2182 340.7827 0002189  37.4210 322.6934 15.08840022 44305,6917.88,95.438,541.26,538.231,0.0
50829.0,STARLINK-3294,PAYLOAD,2022-10-16 11:40:05,15.08840384,0.0002150999999999,53.2193,336.6206,35.5208,324.5927,1.3334e-05,-7.6e-07,0.0,0 STARLINK-3294,1 50829U 22001AC  22289.48617558 -.00000076  00000-0  13334-4 0  9998,2 50829  53.2193 336.6206 0002151  35.5208 324.5927 15.08840384 43175,6917.879,95.438,541.232,538.256,0.0
50829.0,STARLINK-3294,PAYLOAD,2022-10-16 13:15:28,15.08838163,0.0002188,53.2191,336.3231,34.429,325.6844,-2.361800000000001e-05,-6.64e-06,0.0,0 STARLINK-3294,1 50829U 22001AC  22289.55241799 -.00000664  00000-0 -23618-4 0  9996,2 50829  53.2191 336.3231 0002188  34.4290 325.6844 15.08838163 43180,6917.886,95.438,541.265,538.237,0.0
50829.0,STARLINK-3294,PAYLOAD,2022-10-17 03:33:57,15.08829724,0.00022,53.2191,333.6469,35.9085,324.2055,6.8344e-06,-1.8e-06,0.0,0 STARLINK-3294,1 50829U 22001AC  22290.14858336 -.00000180  00000-0  68344-5 0  9992,2 50829  53.2191 333.6469 0002200  35.9085 324.2055 15.08829724 44549,6917.9119999999975,95.438,541.299,538.255,0.0
50829.0,STARLINK-3294,PAYLOAD,2022-10-17 11:30:53,15.08830774,0.0002242,53.2187,332.1597,32.8859,327.2272,5.6333e-05,6.08e-06,0.0,0 STARLINK-3294,1 50829U 22001AC  22290.47978199  .00000608  00000-0  56333-4 0  9996,2 50829  53.2187 332.1597 0002242  32.8859 327.2272 15.08830774 43327,6917.909000000002,95.438,541.325,538.2230000000002,0.0
50829.0,STARLINK-3294,PAYLOAD,2022-10-17 19:27:48,15.0883253,0.0002190999999999,53.2187,330.6729,33.7742,326.339,3.9921e-05,3.47e-06,0.0,0 STARLINK-3294,1 50829U 22001AC  22290.81098291  .00000347  00000-0  39921-4 0  9994,2 50829  53.2187 330.6729 0002191  33.7742 326.3390 15.08832530 43379,6917.903,95.438,541.284,538.253,0.0
50829.0,STARLINK-3294,PAYLOAD,2022-10-18 03:24:44,15.08838804,0.0002198,53.2186,329.1858,35.5754,324.5385,8.858600000000001e-05,1.122e-05,0.0,0 STARLINK-3294,1 50829U 22001AC  22291.14217671  .00001122  00000-0  88586-4 0  9999,2 50829  53.2186 329.1858 0002198  35.5754 324.5385 15.08838804 44694,6917.884,95.438,541.27,538.2280000000002,0.0
50829.0,STARLINK-3294,PAYLOAD,2022-10-18 08:10:53,15.08833708,0.0002188,53.2187,328.2937,33.6387,326.4744,3.6996e-05,3e-06,0.0,0 STARLINK-3294,1 50829U 22001AC  22291.34090201  .00000300  00000-0  36996-4 0  9994,2 50829  53.2187 328.2937 0002188  33.6387 326.4744 15.08833708 44725,6917.9,95.438,541.278,538.251,0.0
50829.0,STARLINK-3294,PAYLOAD,2022-10-19 11:12:27,15.08835791,0.0002255999999999,53.2186,323.2382,34.0374,326.0762,7.713300000000001e-05,9.39e-06,0.0,0 STARLINK-3294,1 50829U 22001AC  22292.46698461  .00000939  00000-0  77133-4 0  9996,2 50829  53.2186 323.2382 0002256  34.0374 326.0762 15.08835791 43628,6917.893,95.438,541.319,538.198,0.0
